STARLINK-32948          
1 63123U 25039V   26068.20933691  .00034089  00000+0  12422-2 0  9995
2 63123  43.0006  15.4642 0000260 296.9102  63.1723 15.27588938 57997
2025-313BD              
1 67299U 25313BD  26068.62968741  .00081010  00000+0  27634-2 0  9995
2 67299  97.3970 145.2850 0007287 333.4514  26.6352 15.30002360 10838
